NORAD_CAT_ID,OBJECT_NAME,OBJECT_TYPE,EPOCH,MEAN_MOTION,ECCENTRICITY,INCLINATION,RA_OF_ASC_NODE,ARG_OF_PERICENTER,MEAN_ANOMALY,BSTAR,MEAN_MOTION_DOT,MEAN_MOTION_DDOT,TLE_LINE0,TLE_LINE1,TLE_LINE2,SEMIMAJOR_AXIS,PERIOD,APOGEE,PERIGEE,DECAYED
53826.0,STARLINK-4756,PAYLOAD,2023-01-06 13:23:36,15.08825789,0.0002152,53.2186,103.112,36.3474,323.7664,-0.00044187,-7.311e-05,0.0,0 STARLINK-4756,1 53826U 22114J   23006.55806677 -.00007311  00000-0 -44187-3 0  9990,2 53826  53.2186 103.1120 0002152  36.3474 323.7664 15.08825789 17457,6917.924,95.438,541.278,538.3,0.0
53826.0,STARLINK-4756,PAYLOAD,2023-01-06 22:55:55,15.08832713,0.0002107,53.2185,101.3274,39.0185,321.0959,-0.00017532,-3.077e-05,0.0,0 STARLINK-4756,1 53826U 22114J   23006.95550641 -.00003077  00000-0 -17532-3 0  9990,2 53826  53.2185 101.3274 0002107  39.0185 321.0959 15.08832713 17515,6917.903,95.438,541.225,538.31,0.0
53826.0,STARLINK-4756,PAYLOAD,2023-01-07 06:52:51,15.08833143,0.0002285,53.2188,99.8404,39.0452,321.0705,-9.057e-05,-1.729e-05,0.0,0 STARLINK-4756,1 53826U 22114J   23007.28670977 -.00001729  00000-0 -90570-4 0  9998,2 53826  53.2188  99.8404 0002285  39.0452 321.0705 15.08833143 18101,6917.901,95.438,541.347,538.186,0.0
53826.0,STARLINK-4756,PAYLOAD,2023-01-07 13:14:23,15.08846466,0.0002238,53.2184,98.6522,38.9165,321.1988,-3.0323e-05,-7.71e-06,0.0,0 STARLINK-4756,1 53826U 22114J   23007.55166249 -.00000771  00000-0 -30323-4 0  9996,2 53826  53.2184  98.6522 0002238  38.9165 321.1988 15.08846466 17602,6917.861,95.437,541.274,538.177,0.0
53826.0,STARLINK-4756,PAYLOAD,2023-01-08 08:19:02,15.08824115,0.0002239,53.2187,95.0839,33.0437,327.0695,0.00015867,2.237e-05,0.0,0 STARLINK-4756,1 53826U 22114J   23008.34656135  .00002237  00000-0  15867-3 0  9994,2 53826  53.2187  95.0839 0002239  33.0437 327.0695 15.08824115 17726,6917.929,95.439,541.3430000000002,538.245,0.0
53826.0,STARLINK-4756,PAYLOAD,2023-01-08 14:40:34,15.08839549,0.0002245,53.2185,93.8946,33.7984,326.3151,0.00036906,5.59e-05,0.0,0 STARLINK-4756,1 53826U 22114J   23008.61151564  .00005590  00000-0  36906-3 0  9992,2 53826  53.2185  93.8946 0002245  33.7984 326.3151 15.08839549 17760,6917.882,95.438,541.3,538.194,0.0
53826.0,STARLINK-4756,PAYLOAD,2023-01-08 22:37:31,15.08833713,0.0002405,53.2184,92.4059,38.5453,321.571,0.00015449,2.171e-05,0.0,0 STARLINK-4756,1 53826U 22114J   23008.94272167  .00002171  00000-0  15449-3 0  9992,2 53826  53.2184  92.4059 0002405  38.5453 321.5710 15.08833713 17812,6917.9,95.438,541.428,538.101,0.0
53826.0,STARLINK-4756,PAYLOAD,2023-01-09 11:20:36,15.08839799,0.0002167,53.2196,90.0285,34.1109,326.0022,0.0001002999999999,1.308e-05,0.0,0 STARLINK-4756,1 53826U 22114J   23009.47263899  .00001308  00000-0  10030-3 0  9995,2 53826  53.2196  90.0285 0002167  34.1109 326.0022 15.08839799 18430,6917.880999999999,95.438,541.245,538.247,0.0
53826.0,STARLINK-4756,PAYLOAD,2023-01-09 14:31:21,15.08850811,0.0002053,53.2196,89.4339,40.584,319.5305,-8.3954e-05,-1.625e-05,0.0,0 STARLINK-4756,1 53826U 22114J   23009.60511559 -.00001625  00000-0 -83954-4 0  9999,2 53826  53.2196  89.4339 0002053  40.5840 319.5305 15.08850811 17910,6917.847,95.437,541.133,538.2919999999998,0.0
53826.0,STARLINK-4756,PAYLOAD,2023-01-10 09:35:59,15.088385699999998,0.0001894,53.2195,85.8658,33.7496,326.3617,0.00012916,1.768e-05,0.0,0 STARLINK-4756,1 53826U 22114J   23010.39999905  .00001768  00000-0  12916-3 0  9997,2 53826  53.2195  85.8658 0001894  33.7496 326.3617 15.08838570 18030,6917.885,95.438,541.06,538.44,0.0
53826.0,STARLINK-4756,PAYLOAD,2023-01-10 14:22:09,15.08843483,0.0002162,53.2193,84.9743,32.7766,327.336,1.3106e-05,-8e-07,0.0,0 STARLINK-4756,1 53826U 22114J   23010.59871950 -.00000080  00000-0  13106-4 0  9998,2 53826  53.2193  84.9743 0002162  32.7766 327.3360 15.08843483 18609,6917.87,95.437,541.23,538.239,0.0
53826.0,STARLINK-4756,PAYLOAD,2023-01-11 11:02:07,15.08919147,0.0002223,53.2188,81.1099,24.7187,335.3912,-0.00088792,-0.00014423,0.0,0 STARLINK-4756,1 53826U 22114J   23011.45981328 -.00014423  00000-0 -88792-3 0  9994,2 53826  53.2188  81.1099 0002223  24.7187 335.3912 15.08919147 18199,6917.638000000001,95.433,541.0409999999998,537.966,0.0
53826.0,STARLINK-4756,PAYLOAD,2023-01-11 23:45:15,15.08832356,0.0001937,53.219,78.7298,47.6757,312.4399,-1.2281e-05,-4.84e-06,0.0,0 STARLINK-4756,1 53826U 22114J   23011.98976782 -.00000484  00000-0 -12281-4 0  9993,2 53826  53.2190  78.7298 0001937  47.6757 312.4399 15.08832356 18273,6917.904,95.438,541.109,538.429,0.0
53826.0,STARLINK-4756,PAYLOAD,2023-01-12 10:52:58,15.08821808,0.000223,53.2191,76.649,34.5795,325.5342,-7.6315e-05,-1.502e-05,0.0,0 STARLINK-4756,1 53826U 22114J   23012.45346023 -.00001502  00000-0 -76315-4 0  9995,2 53826  53.2191  76.6490 0002230  34.5795 325.5342 15.08821808 18340,6917.936,95.439,541.344,538.258,0.0
53826.0,STARLINK-4756,PAYLOAD,2023-01-13 10:43:45,15.08848755,0.0002195999999999,53.2185,72.1893,43.2375,316.8789,0.00025791,3.82e-05,0.0,0 STARLINK-4756,1 53826U 22114J   23013.44704881  .00003820  00000-0  25791-3 0  9999,2 53826  53.2185  72.1893 0002196  43.2375 316.8789 15.08848755 18497,6917.854,95.437,541.238,538.1990000000001,0.0
53826.0,STARLINK-4756,PAYLOAD,2023-01-13 20:16:04,15.08839652,0.0002326,53.2186,70.4032,40.1657,319.9507,0.00019757,2.857e-05,0.0,0 STARLINK-4756,1 53826U 22114J   23013.84449387  .00002857  00000-0  19757-3 0  9994,2 53826  53.2186  70.4032 0002326  40.1657 319.9507 15.08839652 19093,6917.880999999999,95.438,541.356,538.137,0.0
53826.0,STARLINK-4756,PAYLOAD,2023-01-13 23:26:51,15.08834006,0.0002114,53.2187,69.8119,45.911,314.2056,0.00033856,5.103e-05,0.0,0 STARLINK-4756,1 53826U 22114J   23013.97698026  .00005103  00000-0  33856-3 0  9997,2 53826  53.2187  69.8119 0002114  45.9110 314.2056 15.08834006 18571,6917.899,95.438,541.226,538.3009999999999,0.0
53826.0,STARLINK-4756,PAYLOAD,2023-01-15 02:28:24,15.08832381,0.0001933,53.2189,64.7571,64.8423,295.2769,-0.00019973,-3.465e-05,0.0,0 STARLINK-4756,1 53826U 22114J   23015.10306170 -.00003465  00000-0 -19973-3 0  9995,2 53826  53.2189  64.7571 0001933  64.8423 295.2769 15.08832381 18746,6917.904,95.438,541.106,538.431,0.0
53826.0,STARLINK-4756,PAYLOAD,2023-01-15 05:39:10,15.0883181,0.0001906,53.2185,64.1604,60.1061,300.012,-0.00019748,-3.429e-05,0.0,0 STARLINK-4756,1 53826U 22114J   23015.23554225 -.00003429  00000-0 -19748-3 0  9995,2 53826  53.2185  64.1604 0001906  60.1061 300.0120 15.08831810 19305,6917.905,95.438,541.089,538.452,0.0
53826.0,STARLINK-4756,PAYLOAD,2023-01-15 19:57:38,15.08839094,0.0001582,53.2186,61.4827,60.5664,299.5486,2.0244e-05,3.4e-07,0.0,0 STARLINK-4756,1 53826U 22114J   23015.83169659  .00000034  00000-0  20244-4 0  9995,2 53826  53.2186  61.4827 0001582  60.5664 299.5486 15.08839094 18854,6917.883000000001,95.438,540.8430000000001,538.654,0.0
53826.0,STARLINK-4756,PAYLOAD,2023-01-16 07:05:20,15.08852103,0.0001796,53.2182,59.4012,64.3293,295.7884,0.00032754,4.93e-05,0.0,0 STARLINK-4756,1 53826U 22114J   23016.29537190  .00004930  00000-0  32754-3 0  9992,2 53826  53.2182  59.4012 0001796  64.3293 295.7884 15.08852103 18924,6917.843000000001,95.437,540.951,538.466,0.0
53826.0,STARLINK-4756,PAYLOAD,2023-01-16 10:16:06,15.08859408,0.0001781,53.2182,58.8065,70.4891,289.6293,0.00034623,5.229e-05,0.0,0 STARLINK-4756,1 53826U 22114J   23016.42784739  .00005229  00000-0  34623-3 0  9999,2 53826  53.2182  58.8065 0001781  70.4891 289.6293 15.08859408 19484,6917.821,95.436,540.918,538.4540000000001,0.0
53826.0,STARLINK-4756,PAYLOAD,2023-01-16 19:48:25,15.08840345,0.0001712,53.2192,57.023,74.4918,285.6263,-5.427899999999999e-05,-1.152e-05,0.0,0 STARLINK-4756,1 53826U 22114J   23016.82529622 -.00001152  00000-0 -54279-4 0  9994,2 53826  53.2192  57.0230 0001712  74.4918 285.6263 15.08840345 19009,6917.879,95.438,540.929,538.56,0.0
53826.0,STARLINK-4756,PAYLOAD,2023-01-17 03:45:22,15.08818028,0.0001656,53.2175,55.5361,89.0362,271.082,-0.00034914,-5.837e-05,0.0,0 STARLINK-4756,1 53826U 22114J   23017.15650612 -.00005837  00000-0 -34914-3 0  9992,2 53826  53.2175  55.5361 0001656  89.0362 271.0820 15.08818028 19056,6917.948,95.439,540.9580000000001,538.6669999999999,0.0
53826.0,STARLINK-4756,PAYLOAD,2023-01-17 08:31:31,15.08816251,0.0001664,53.2175,54.6442,93.6684,266.4498,-0.00018391,-3.212e-05,0.0,0 STARLINK-4756,1 53826U 22114J   23017.35522686 -.00003212  00000-0 -18391-3 0  9999,2 53826  53.2175  54.6442 0001664  93.6684 266.4498 15.08816251 19621,6917.953,95.439,540.969,538.6669999999999,0.0
53826.0,STARLINK-4756,PAYLOAD,2023-01-17 22:50:00,15.08836802,0.0001811999999999,53.2176,51.968,91.9506,268.1693,0.0015198,0.0002398,0.0,0 STARLINK-4756,1 53826U 22114J   23017.95139611  .00023980  00000-0  15198-2 0  9990,2 53826  53.2176  51.9680 0001812  91.9506 268.1693 15.08836802 19175,6917.89,95.438,541.009,538.502,0.0
53826.0,STARLINK-4756,PAYLOAD,2023-01-18 08:22:18,15.08878679,0.0001704,53.2182,50.1838,95.0414,265.0773,0.0026324,0.00041901,0.0,0 STARLINK-4756,1 53826U 22114J   23018.34883019  .00041901  00000-0  26324-2 0  9998,2 53826  53.2182  50.1838 0001704  95.0414 265.0773 15.08878679 19231,6917.762,95.435,540.806,538.448,0.0
53826.0,STARLINK-4756,PAYLOAD,2023-01-18 11:33:04,15.08890268,0.0001712,53.2182,49.5891,95.0524,265.0664,0.002759,0.00043956,0.0,0 STARLINK-4756,1 53826U 22114J   23018.48130635  .00043956  00000-0  27590-2 0  9990,2 53826  53.2182  49.5891 0001712  95.0524 265.0664 15.08890268 19791,6917.727,95.434,540.776,538.4069999999999,0.0
53826.0,STARLINK-4756,PAYLOAD,2023-01-18 19:30:00,15.08870133,0.0002077,53.2191,48.103,91.5319,268.5911,0.0014902,0.00023528,0.0,0 STARLINK-4756,1 53826U 22114J   23018.81250631  .00023528  00000-0  14902-2 0  9992,2 53826  53.2191  48.1030 0002077  91.5319 268.5911 15.08870133 19308,6917.7880000000005,95.436,541.09,538.216,0.0
